{
  "type": "FeatureCollection",
  "features": [
    {
      "type": "Feature",
      "properties": {
        "norad_id": 59626,
        "name": "LEGION 2",
        "group": "resource",
        "lat": -43.32296093708115,
        "lon": -135.76943181236294,
        "alt_km": 525.2505452670512,
        "timestamp": "2025-12-02T13:52:16.933632+00:00",
        "meta_object_name": "LEGION 2",
        "meta_object_id": "2024-081B",
        "meta_epoch": "2025-12-02T04:58:06.453696",
        "meta_mean_motion": 15.16324451,
        "meta_eccentricity": 0.00063224,
        "meta_inclination": 97.5235,
        "meta_ra_of_asc_node": 51.0229,
        "meta_arg_of_pericenter": 336.3806,
        "meta_mean_anomaly": 23.7136,
        "meta_ephemeris_type": 0,
        "meta_classification_type": "U",
        "meta_norad_cat_id": 59626,
        "meta_element_set_no": 999,
        "meta_rev_at_epoch": 8768,
        "meta_bstar": 0.00031524749,
        "meta_mean_motion_dot": 6.047e-05,
        "meta_mean_motion_ddot": 0,
        "tle_line1": "1 59626U 24081B   25336.20701914  .00006047  00000+0  31525-3 0  9991",
        "tle_line2": "2 59626  97.5235  51.0229 0006322 336.3806  23.7136 15.16324451 87685"
      },
      "geometry": {
        "type": "Point",
        "coordinates": [
          -135.76943181236294,
          -43.32296093708115
        ]
      }
    },
    {
      "type": "Feature",
      "properties": {
        "norad_id": 60182,
        "name": "ALOS-4 (DAICHI-4)",
        "group": "resource",
        "lat": 29.557545016578665,
        "lon": -103.9002776588586,
        "alt_km": 629.0179806888154,
        "timestamp": "2025-12-02T13:52:16.933642+00:00",
        "meta_object_name": "ALOS-4 (DAICHI-4)",
        "meta_object_id": "2024-123A",
        "meta_epoch": "2025-11-30T09:15:12.370176",
        "meta_mean_motion": 14.79468497,
        "meta_eccentricity": 0.000127,
        "meta_inclination": 97.9232,
        "meta_ra_of_asc_node": 69.4089,
        "meta_arg_of_pericenter": 105.4124,
        "meta_mean_anomaly": 254.7228,
        "meta_ephemeris_type": 0,
        "meta_classification_type": "U",
        "meta_norad_cat_id": 60182,
        "meta_element_set_no": 999,
        "meta_rev_at_epoch": 7648,
        "meta_bstar": -8.429942e-06,
        "meta_mean_motion_dot": -1.14e-06,
        "meta_mean_motion_ddot": 0,
        "tle_line1": "1 60182U 24123A   25334.38555984 -.00000114  00000+0 -84299-5 0  9997",
        "tle_line2": "2 60182  97.9232  69.4089 0001270 105.4124 254.7228 14.79468497 76488"
      },
      "geometry": {
        "type": "Point",
        "coordinates": [
          -103.9002776588586,
          29.557545016578665
        ]
      }
    },
    {
      "type": "Feature",
      "properties": {
        "norad_id": 60452,
        "name": "LEGION 3",
        "group": "resource",
        "lat": -18.25581711167143,
        "lon": -156.12664490017792,
        "alt_km": 517.2964556296947,
        "timestamp": "2025-12-02T13:52:16.933653+00:00",
        "meta_object_name": "LEGION 3",
        "meta_object_id": "2024-146A",
        "meta_epoch": "2025-12-02T05:03:25.752672",
        "meta_mean_motion": 15.15582432,
        "meta_eccentricity": 0.00136695,
        "meta_inclination": 45.0023,
        "meta_ra_of_asc_node": 6.5698,
        "meta_arg_of_pericenter": 138.6974,
        "meta_mean_anomaly": 221.4941,
        "meta_ephemeris_type": 0,
        "meta_classification_type": "U",
        "meta_norad_cat_id": 60452,
        "meta_element_set_no": 999,
        "meta_rev_at_epoch": 7213,
        "meta_bstar": 0.00033609596,
        "meta_mean_motion_dot": 6.241e-05,
        "meta_mean_motion_ddot": 0,
        "tle_line1": "1 60452U 24146A   25336.21071473  .00006241  00000+0  33610-3 0  9996",
        "tle_line2": "2 60452  45.0023   6.5698 0013669 138.6974 221.4941 15.15582432 72132"
      },
      "geometry": {
        "type": "Point",
        "coordinates": [
          -156.12664490017792,
          -18.25581711167143
        ]
      }
    },
    {
      "type": "Feature",
      "properties": {
        "norad_id": 60453,
        "name": "LEGION 4",
        "group": "resource",
        "lat": -14.467762446210486,
        "lon": -68.73731552893041,
        "alt_km": 517.0729589247167,
        "timestamp": "2025-12-02T13:52:16.933663+00:00",
        "meta_object_name": "LEGION 4",
        "meta_object_id": "2024-146B",
        "meta_epoch": "2025-12-02T05:04:48.721728",
        "meta_mean_motion": 15.15639513,
        "meta_eccentricity": 0.00098609,
        "meta_inclination": 45.0374,
        "meta_ra_of_asc_node": 98.2826,
        "meta_arg_of_pericenter": 256.4141,
        "meta_mean_anomaly": 103.564,
        "meta_ephemeris_type": 0,
        "meta_classification_type": "U",
        "meta_norad_cat_id": 60453,
        "meta_element_set_no": 999,
        "meta_rev_at_epoch": 7098,
        "meta_bstar": 0.00042277467,
        "meta_mean_motion_dot": 7.927e-05,
        "meta_mean_motion_ddot": 0,
        "tle_line1": "1 60453U 24146B   25336.21167502  .00007927  00000+0  42277-3 0  9997",
        "tle_line2": "2 60453  45.0374  98.2826 0009860 256.4141 103.5640 15.15639513 70986"
      },
      "geometry": {
        "type": "Point",
        "coordinates": [
          -68.73731552893041,
          -14.467762446210486
        ]
      }
    },
    {
      "type": "Feature",
      "properties": {
        "norad_id": 60989,
        "name": "SENTINEL-2C",
        "group": "resource",
        "lat": -69.08284706894929,
        "lon": -154.00451735525616,
        "alt_km": 796.9470668604508,
        "timestamp": "2025-12-02T13:52:16.933675+00:00",
        "meta_object_name": "SENTINEL-2C",
        "meta_object_id": "2024-157A",
        "meta_epoch": "2025-12-02T05:59:22.248384",
        "meta_mean_motion": 14.30823406,
        "meta_eccentricity": 0.00011644,
        "meta_inclination": 98.5615,
        "meta_ra_of_asc_node": 48.8849,
        "meta_arg_of_pericenter": 102.2564,
        "meta_mean_anomaly": 257.8749,
        "meta_ephemeris_type": 0,
        "meta_classification_type": "U",
        "meta_norad_cat_id": 60989,
        "meta_element_set_no": 999,
        "meta_rev_at_epoch": 6482,
        "meta_bstar": 9.99643e-05,
        "meta_mean_motion_dot": 2.18e-06,
        "meta_mean_motion_ddot": 0,
        "tle_line1": "1 60989U 24157A   25336.24956306  .00000218  00000+0  99964-4 0  9996",
        "tle_line2": "2 60989  98.5615  48.8849 0001164 102.2564 257.8749 14.30823406 64824"
      },
      "geometry": {
        "type": "Point",
        "coordinates": [
          -154.00451735525616,
          -69.08284706894929
        ]
      }
    },
    {
      "type": "Feature",
      "properties": {
        "norad_id": 61735,
        "name": "IONOSFERA-M 1",
        "group": "resource",
        "lat": 80.71314198829295,
        "lon": 96.70014415992944,
        "alt_km": 808.2058192403529,
        "timestamp": "2025-12-02T13:52:16.933685+00:00",
        "meta_object_name": "IONOSFERA-M 1",
        "meta_object_id": "2024-199A",
        "meta_epoch": "2025-12-02T06:41:02.044896",
        "meta_mean_motion": 14.22710163,
        "meta_eccentricity": 0.00014195,
        "meta_inclination": 98.7409,
        "meta_ra_of_asc_node": 206.2064,
        "meta_arg_of_pericenter": 36.7778,
        "meta_mean_anomaly": 323.3497,
        "meta_ephemeris_type": 0,
        "meta_classification_type": "U",
        "meta_norad_cat_id": 61735,
        "meta_element_set_no": 999,
        "meta_rev_at_epoch": 9970,
        "meta_bstar": 6.093669e-05,
        "meta_mean_motion_dot": 9.2e-07,
        "meta_mean_motion_ddot": 0,
        "tle_line1": "1 61735U 24199A   25336.27849589  .00000092  00000+0  60937-4 0  9997",
        "tle_line2": "2 61735  98.7409 206.2064 0001419  36.7778 323.3497 14.22710163 99707"
      },
      "geometry": {
        "type": "Point",
        "coordinates": [
          96.70014415992944,
          80.71314198829295
        ]
      }
    },
    {
      "type": "Feature",
      "properties": {
        "norad_id": 61736,
        "name": "IONOSFERA-M 2",
        "group": "resource",
        "lat": -79.5756428455768,
        "lon": -96.83744320260577,
        "alt_km": 824.380546983647,
        "timestamp": "2025-12-02T13:52:16.933695+00:00",
        "meta_object_name": "IONOSFERA-M 2",
        "meta_object_id": "2024-199B",
        "meta_epoch": "2025-12-02T07:30:56.669760",
        "meta_mean_motion": 14.22712357,
        "meta_eccentricity": 0.00013435,
        "meta_inclination": 98.7408,
        "meta_ra_of_asc_node": 206.1534,
        "meta_arg_of_pericenter": 123.0796,
        "meta_mean_anomaly": 237.0511,
        "meta_ephemeris_type": 0,
        "meta_classification_type": "U",
        "meta_norad_cat_id": 61736,
        "meta_element_set_no": 999,
        "meta_rev_at_epoch": 10283,
        "meta_bstar": 6.908502e-05,
        "meta_mean_motion_dot": 1.11e-06,
        "meta_mean_motion_ddot": 0,
        "tle_line1": "1 61736U 24199B   25336.31315590  .00000111  00000+0  69085-4 0  9998",
        "tle_line2": "2 61736  98.7408 206.1534 0001343 123.0796 237.0511 14.22712357102838"
      },
      "geometry": {
        "type": "Point",
        "coordinates": [
          -96.83744320260577,
          -79.5756428455768
        ]
      }
    }
  ]
}